STARLINK-2557           
1 48299U 21036Z   24085.18237549  .00022421  00000+0  15177-2 0  9995
2 48299  53.0539  49.1639 0001432 102.0614 258.0535 15.06439473161205
STARLINK-2538           
1 48300U 21036AA  24085.30678738  .00018821  00000+0  12796-2 0  9994
2 48300  53.0534  58.6051 0001203 103.0418 257.0705 15.06384010161085
STARLINK-2537           
1 48301U 21036AB  24085.17040239  .00000826  00000+0  74314-4 0  9991
2 48301  53.0531  59.2169 0001442  88.0283 272.0871 15.06405917161055
STARLINK-2556           
1 48302U 21036AC  24085.23305775  .00014132  00000+0  96474-3 0  9993
2 48302  53.0531  58.9327 0001329  98.3821 261.7319 15.06436589161066
STARLINK-2530           
1 48303U 21036AD  24085.36111612  .00013256  00000+0  90617-3 0  9992
2 48303  53.0547  58.3501 0001578 101.6495 258.4672 15.06440345161096
STARLINK-2524           
1 48304U 21036AE  24085.35838538  .00003224  00000+0  23526-3 0  9994
2 48304  53.0549  58.3709 0001512 105.8455 254.2701 15.06400492161095
STARLINK-2519           
1 48305U 21036AF  24085.21102228  .00003113  00000+0  22770-3 0  9997
2 48305  53.0537  59.6107 0001392  86.3988 273.7160 15.06413302161065
STARLINK-2523           
1 48306U 21036AG  24085.15196995 -.00005446  00000+0 -34716-3 0  9991
2 48306  53.0538  59.2963 0001454 108.3281 251.7866 15.06384442161064
STARLINK-2528           
1 48307U 21036AH  24085.21463498  .00006509  00000+0  45521-3 0  9999
2 48307  53.0535  59.0171 0001437  96.4030 263.7123 15.06417847161077
STARLINK-2532           
1 48308U 21036AJ  24085.58335648  .01382266  00000+0  13014-1 0  9993
2 48308  53.0557  52.8037 0001165 104.6281 283.8181 15.63858439161191
STARLINK-2517           
1 48309U 21036AK  24085.20729237  .00022344  00000+0  15139-2 0  9992
2 48309  53.0536  59.0504 0001362  86.9788 273.1356 15.06407029161075
STARLINK-2536           
1 48310U 21036AL  24085.20358059  .00009496  00000+0  65524-3 0  9991
2 48310  53.0550  59.0686 0001578  88.3857 271.7313 15.06416411161078
STARLINK-2534           
1 48311U 21036AM  24085.19989415  .00015593  00000+0  10626-2 0  9993
2 48311  53.0545  59.0807 0001400  88.9616 271.1534 15.06426603161120
STARLINK-2061           
1 48312U 21036AN  24085.19621327  .00014224  00000+0  97109-3 0  9991
2 48312  53.0534  59.1018 0001359  86.7662 273.3483 15.06430548161124
STARLINK-2541           
1 48313U 21036AP  24085.19252007  .00007812  00000+0  54231-3 0  9991
2 48313  53.0545  59.1209 0001507  89.0680 271.0482 15.06430083161128
STARLINK-2549           
1 48314U 21036AQ  24085.18883318  .00013510  00000+0  92363-3 0  9996
2 48314  53.0534  59.1317 0001457  85.7825 274.3330 15.06419302161124
STARLINK-2506           
1 48315U 21036AR  24085.18515026  .00004674  00000+0  33233-3 0  9997
2 48315  53.0526  59.1492 0001452 101.9651 258.1501 15.06414581161127
STARLINK-2507           
1 48316U 21036AS  24085.18146183  .00004655  00000+0  33117-3 0  9992
2 48316  53.0535  59.1673 0001546  99.9810 260.1353 15.06405345161122
STARLINK-2513           
1 48317U 21036AT  24085.31047545  .00015247  00000+0  10393-2 0  9999
2 48317  53.0540  58.5856 0001807  88.7935 271.3261 15.06433334161142
STARLINK-2509           
1 48318U 21036AU  24085.23583462  .00014953  00000+0  10194-2 0  9996
2 48318  53.0537  68.9205 0001475  89.9343 270.1815 15.06443515160984
STARLINK-2512           
1 48319U 21036AV  24085.36388456  .00015579  00000+0  10613-2 0  9998
2 48319  53.0534  68.3357 0001453  85.4117 274.7038 15.06439301161009
STARLINK-2029           
1 48320U 21036AW  24085.22846740  .00012636  00000+0  86518-3 0  9999
2 48320  53.0542  68.9528 0001575  82.6111 277.5057 15.06421024160985
STARLINK-2457           
1 48321U 21036AX  24085.35745851  .00013469  00000+0  92068-3 0  9997
2 48321  53.0532  68.3740 0001549  92.2861 267.8306 15.06428767160952
STARLINK-2477           
1 48322U 21036AY  24085.22109070  .00013963  00000+0  95394-3 0  9995
2 48322  53.0529  68.9903 0001376  85.1688 274.9458 15.06418542160937
STARLINK-2515           
1 48323U 21036AZ  24085.21740059  .00008110  00000+0  56256-3 0  9995
2 48323  53.0539  69.0032 0001314  87.5420 272.5719 15.06412465160938
STARLINK-2527           
1 48324U 21036BA  24085.58335648  .00243141  00000+0  18449-2 0  9996
2 48324  53.0508  48.5088 0001224 136.7840 243.8461 15.71081634161243
STARLINK-2495           
1 48325U 21036BB  24085.21003273  .00002375  00000+0  17827-3 0  9995
2 48325  53.0537  69.0380 0001246  98.9180 261.1950 15.06405368160932
STARLINK-2498           
1 48326U 21036BC  24085.33903230  .00003578  00000+0  25885-3 0  9990
2 48326  53.0544  68.4590 0001721  74.5768 285.5411 15.06421229160955
STARLINK-2502           
1 48327U 21036BD  24085.20265312  .00011310  00000+0  77662-3 0  9992
2 48327  53.0532  69.0718 0001468  94.1890 265.9266 15.06415305160930
STARLINK-2504           
1 48328U 21036BE  24085.19896691  .00004688  00000+0  33329-3 0  9993
2 48328  53.0532  69.0885 0001375  86.9017 273.2129 15.06413622160933
STARLINK-2510           
1 48329U 21036BF  24085.19528131  .00005767  00000+0  40562-3 0  9991
2 48329  53.0530  69.1037 0001441  96.8041 263.3112 15.06409970160936
STARLINK-2501           
1 48330U 21036BG  24085.25794326  .00012644  00000+0  86589-3 0  9992
2 48330  53.0534  68.8214 0001223  80.3801 279.7326 15.06414644160948
STARLINK-2514           
1 48331U 21036BH  24085.25425475  .00009207  00000+0  63573-3 0  9998
2 48331  53.0542  68.8399 0001426 102.5179 257.5969 15.06426489160949
STARLINK-2511           
1 48332U 21036BJ  24085.25331042  .00001742  00000+0  13575-3 0  9998
2 48332  53.0533  68.8445 0001455  90.8725 269.2431 15.06412989160944
STARLINK-2518           
1 48333U 21036BK  24085.24688127  .00012385  00000+0  84842-3 0  9997
2 48333  53.0542  68.8717 0001527  95.8366 264.2797 15.06419642160946
STARLINK-2470           
1 48334U 21036BL  24085.24319791  .00007311  00000+0  50883-3 0  9997
2 48334  53.0531  68.8893 0001658  97.2170 262.9007 15.06426209160940
STARLINK-2441           
1 48335U 21036BM  24085.37219940  .00023467  00000+0  15873-2 0  9996
2 48335  53.0534  68.3061 0001411  98.2130 261.9019 15.06441760160963
STARLINK-2613           
1 48353U 21038A   24085.37773156  .00013477  00000+0  92114-3 0  9996
2 48353  53.0554 328.2845 0001675  81.1235 278.9943 15.06430947159958
STARLINK-2674           
1 48354U 21038B   24085.37404124  .00016460  00000+0  11202-2 0  9996
2 48354  53.0551 328.3003 0000673  58.3576 301.7479 15.06437619159956
STARLINK-2635           
1 48355U 21038C   24085.37036807  .00013276  00000+0  90752-3 0  9996
2 48355  53.0546 328.3156 0001039  52.6162 307.4921 15.06439239159950
STARLINK-2637           
1 48356U 21038D   24085.36668069  .00007218  00000+0  50279-3 0  9996
2 48356  53.0548 328.3322 0002531 101.6037 258.5236 15.06412135159953
STARLINK-2636           
1 48357U 21038E   24085.36574857  .00011179  00000+0  76825-3 0  9994
2 48357  53.0555 328.3684 0001596  87.3006 272.8165 15.06396363159953
STARLINK-2624           
1 48358U 21038F   24085.09391693  .00059885  00000+0  39974-2 0  9999
2 48358  53.0557 329.5620 0001396 108.1170 251.9971 15.06472902159903
STARLINK-2628           
1 48359U 21038G   24085.09022974  .00043398  00000+0  29092-2 0  9995
2 48359  53.0552 329.5783 0001384 109.1585 250.9554 15.06467713160550
STARLINK-2622           
1 48360U 21038H   24084.95386525  .00051272  00000+0  34313-2 0  9998
2 48360  53.0561 330.1904 0001313  69.2257 290.8873 15.06451516159299
STARLINK-2591           
1 48361U 21038J   24085.08286913  .00071404  00000+0  47539-2 0  9997
2 48361  53.0535 329.6149 0001434  63.9373 296.1764 15.06480713159906
STARLINK-2578           
1 48362U 21038K   24085.38146687 -.00017661  00000+0 -11711-2 0  9994
2 48362  53.0545 328.3572 0002679  89.3845 270.7451 15.06352581159959
STARLINK-2626           
1 48363U 21038L   24084.92668207  .00000665  00000+0  63543-4 0  9997
2 48363  53.0557 325.3112 0001238  88.0424 272.0707 15.06393862159360
STARLINK-2611           
1 48364U 21038M   24085.07044384  .00045664  00000+0  30591-2 0  9992
2 48364  53.0549 324.8338 0000880 119.7551 240.3526 15.06468560159973
STARLINK-2608           
1 48365U 21038N   24084.90089027  .00033298  00000+0  22444-2 0  9995
2 48365  53.0551 325.4306 0001464  78.9968 281.1186 15.06389988159955
STARLINK-2631           
1 48366U 21038P   24085.35289547  .00017707  00000+0  12049-2 0  9992
2 48366  53.0543 318.3953 0002098  88.3386 271.7843 15.06392475160085
STARLINK-2643           
1 48367U 21038Q   24084.95111708  .00054380  00000+0  36424-2 0  9992
2 48367  53.0541 320.2023 0001323 114.2922 245.8205 15.06392223159431
STARLINK-2623           
1 48368U 21038R   24084.92904002  .00004934  00000+0  34996-3 0  9990
2 48368  53.0540 320.5812 0001339  79.2825 280.8315 15.06391257159436
STARLINK-2641           
1 48369U 21038S   24085.34550209  .00018058  00000+0  12276-2 0  9992
2 48369  53.0539 318.4321 0001205 105.7867 254.3255 15.06414858160084
STARLINK-2621           
1 48370U 21038T   24085.34181216  .00016756  00000+0  11409-2 0  9992
2 48370  53.0543 318.4446 0001426  55.5333 304.5791 15.06406211160081
STARLINK-2589           
1 48371U 21038U   24085.33814354  .00002577  00000+0  19187-3 0  9996
2 48371  53.0544 318.4652 0001326 102.5618 257.5519 15.06386481160081
STARLINK-2572           
1 48372U 21038V   24084.91667824  .01407769  00000+0  17260-1 0  9999
2 48372  53.0534 316.2194 0000965  88.4248 121.3446 15.56857719  5769
STARLINK-2609           
1 48373U 21038W   24084.93267674  .00045311  00000+0  30403-2 0  9996
2 48373  53.0549 320.2865 0001186  93.9196 266.1929 15.06412151159435
STARLINK-2604           
1 48374U 21038X   24085.36028200  .00018352  00000+0  12468-2 0  9991
2 48374  53.0537 318.7084 0002575  79.8812 280.2468 15.06427466160082
